{"type": "FeatureCollection", "features": [ {"type": "Feature", "properties": {"norad_id": 65304, "name": "DRAGON CRS-33", "group": "stations", "lat": 50.00567361676658, "lon": 164.3657463762056, "alt_km": 412.52621056948556, "timestamp": "2025-12-22T14:45:56.131256+00:00", "meta": {"OBJECT_NAME": "DRAGON CRS-33", "OBJECT_ID": "2025-186A", "EPOCH": "2025-12-21T22:57:18.016992", "MEAN_MOTION": 15.49714244, "ECCENTRICITY": 0.00031643, "INCLINATION": 51.6324, "RA_OF_ASC_NODE": 96.8363, "ARG_OF_PERICENTER": 283.4657, "MEAN_ANOMALY": 76.5979, "EPHEMERIS_TYPE": 0, "CLASSIFICATION_TYPE": "U", "NORAD_CAT_ID": 65304, "ELEMENT_SET_NO": 999, "REV_AT_EPOCH": 11, "BSTAR": 0.00020227117, "MEAN_MOTION_DOT": 0.0001099, "MEAN_MOTION_DDOT": 0}, "tle": {"line1": "1 65304U 25186A   25355.95645853  .00010990  00000+0  20227-3 0  9999", "line2": "2 65304  51.6324  96.8363 0003164 283.4657  76.5979 15.49714244   111"}}, "geometry": {"type": "Point", "coordinates": [164.3657463762056, 50.00567361676658]}}, {"type": "Feature", "properties": {"norad_id": 65586, "name": "PROGRESS-MS 32", "group": "stations", "lat": 50.00567381690134, "lon": 164.36574754229514, "alt_km": 412.5262105552356, "timestamp": "2025-12-22T14:45:56.131268+00:00", "meta": {"OBJECT_NAME": "PROGRESS-MS 32", "OBJECT_ID": "2025-204A", "EPOCH": "2025-12-21T22:57:18.016992", "MEAN_MOTION": 15.49714244, "ECCENTRICITY": 0.00031643, "INCLINATION": 51.6324, "RA_OF_ASC_NODE": 96.8363, "ARG_OF_PERICENTER": 283.4657, "MEAN_ANOMALY": 76.5979, "EPHEMERIS_TYPE": 0, "CLASSIFICATION_TYPE": "U", "NORAD_CAT_ID": 65586, "ELEMENT_SET_NO": 999, "REV_AT_EPOCH": 27, "BSTAR": 0.00020227117, "MEAN_MOTION_DOT": 0.0001099, "MEAN_MOTION_DDOT": 0}, "tle": {"line1": "1 65586U 25204A   25355.95645853  .00010990  00000+0  20227-3 0  9992", "line2": "2 65586  51.6324  96.8363 0003164 283.4657  76.5979 15.49714244   270"}}, "geometry": {"type": "Point", "coordinates": [164.36574754229514, 50.00567381690134]}}, {"type": "Feature", "properties": {"norad_id": 65616, "name": "CYGNUS NG-23", "group": "stations", "lat": 50.00567398368058, "lon": 164.36574851403807, "alt_km": 412.5262105433585, "timestamp": "2025-12-22T14:45:56.131278+00:00", "meta": {"OBJECT_NAME": "CYGNUS NG-23", "OBJECT_ID": "2025-208A", "EPOCH": "2025-12-21T22:57:18.016992", "MEAN_MOTION": 15.49714244, "ECCENTRICITY": 0.00031643, "INCLINATION": 51.6324, "RA_OF_ASC_NODE": 96.8363, "ARG_OF_PERICENTER": 283.4657, "MEAN_ANOMALY": 76.5979, "EPHEMERIS_TYPE": 0, "CLASSIFICATION_TYPE": "U", "NORAD_CAT_ID": 65616, "ELEMENT_SET_NO": 999, "REV_AT_EPOCH": 22, "BSTAR": 0.00020227117, "MEAN_MOTION_DOT": 0.0001099, "MEAN_MOTION_DDOT": 0}, "tle": {"line1": "1 65616U 25208A   25355.95645853  .00010990  00000+0  20227-3 0  9990", "line2": "2 65616  51.6324  96.8363 0003164 283.4657  76.5979 15.49714244   229"}}, "geometry": {"type": "Point", "coordinates": [164.36574851403807, 50.00567398368058]}}, {"type": "Feature", "properties": {"norad_id": 65729, "name": "DRAGONFLY", "group": "stations", "lat": -6.12562330236683, "lon": -90.05189332939837, "alt_km": 350.04306824960076, "timestamp": "2025-12-22T14:45:56.131289+00:00", "meta": {"OBJECT_NAME": "DRAGONFLY", "OBJECT_ID": "1998-067XH", "EPOCH": "2025-12-21T12:05:00.182112", "MEAN_MOTION": 15.74757439, "ECCENTRICITY": 0.00076429, "INCLINATION": 51.6248, "RA_OF_ASC_NODE": 90.7906, "ARG_OF_PERICENTER": 331.3887, "MEAN_ANOMALY": 28.6692, "EPHEMERIS_TYPE": 0, "CLASSIFICATION_TYPE": "U", "NORAD_CAT_ID": 65729, "ELEMENT_SET_NO": 999, "REV_AT_EPOCH": 1454, "BSTAR": 0.0011143693, "MEAN_MOTION_DOT": 0.00170588, "MEAN_MOTION_DDOT": 0}, "tle": {"line1": "1 65729U 98067XH  25355.50347433  .00170588  00000+0  11144-2 0  9999", "line2": "2 65729  51.6248  90.7906 0007642 331.3887  28.6692 15.74757439 14549"}}, "geometry": {"type": "Point", "coordinates": [-90.05189332939837, -6.12562330236683]}}, {"type": "Feature", "properties": {"norad_id": 65731, "name": "1998-067XK", "group": "stations", "lat": -25.647802634760446, "lon": 64.6984972349852, "alt_km": 366.16936004288164, "timestamp": "2025-12-22T14:45:56.131299+00:00", "meta": {"OBJECT_NAME": "1998-067XK", "OBJECT_ID": "1998-067XK", "EPOCH": "2025-12-21T23:36:26.096832", "MEAN_MOTION": 15.67429513, "ECCENTRICITY": 0.00048355, "INCLINATION": 51.6293, "RA_OF_ASC_NODE": 90.2734, "ARG_OF_PERICENTER": 305.1289, "MEAN_ANOMALY": 54.9254, "EPHEMERIS_TYPE": 0, "CLASSIFICATION_TYPE": "U", "NORAD_CAT_ID": 65731, "ELEMENT_SET_NO": 999, "REV_AT_EPOCH": 1459, "BSTAR": 0.000976025, "MEAN_MOTION_DOT": 0.00108748, "MEAN_MOTION_DDOT": 0}, "tle": {"line1": "1 65731U 98067XK  25355.98363538  .00108748  00000+0  97602-3 0  9991", "line2": "2 65731  51.6293  90.2734 0004835 305.1289  54.9254 15.67429513 14594"}}, "geometry": {"type": "Point", "coordinates": [64.6984972349852, -25.647802634760446]}}, {"type": "Feature", "properties": {"norad_id": 65732, "name": "RSP-03", "group": "stations", "lat": 38.46718905772808, "lon": 125.1343191600614, "alt_km": 351.3398122102499, "timestamp": "2025-12-22T14:45:56.131326+00:00", "meta": {"OBJECT_NAME": "RSP-03", "OBJECT_ID": "1998-067XL", "EPOCH": "2025-12-22T06:54:35.592480", "MEAN_MOTION": 15.70976821, "ECCENTRICITY": 0.00056984, "INCLINATION": 51.6263, "RA_OF_ASC_NODE": 87.7899, "ARG_OF_PERICENTER": 311.2315, "MEAN_ANOMALY": 48.8191, "EPHEMERIS_TYPE": 0, "CLASSIFICATION_TYPE": "U", "NORAD_CAT_ID": 65732, "ELEMENT_SET_NO": 999, "REV_AT_EPOCH": 1466, "BSTAR": 0.0011568337, "MEAN_MOTION_DOT": 0.00150193, "MEAN_MOTION_DDOT": 0}, "tle": {"line1": "1 65732U 98067XL  25356.28791195  .00150193  00000+0  11568-2 0  9997", "line2": "2 65732  51.6263  87.7899 0005698 311.2315  48.8191 15.70976821 14664"}}, "geometry": {"type": "Point", "coordinates": [125.1343191600614, 38.46718905772808]}}, {"type": "Feature", "properties": {"norad_id": 65733, "name": "GHS-01", "group": "stations", "lat": -32.31041296464109, "lon": -65.67393165748824, "alt_km": 339.47531917099514, "timestamp": "2025-12-22T14:45:56.131341+00:00", "meta": {"OBJECT_NAME": "GHS-01", "OBJECT_ID": "1998-067XM", "EPOCH": "2025-12-21T11:59:59.059968", "MEAN_MOTION": 15.78528465, "ECCENTRICITY": 0.00088162, "INCLINATION": 51.6282, "RA_OF_ASC_NODE": 90.0237, "ARG_OF_PERICENTER": 335.2591, "MEAN_ANOMALY": 24.7986, "EPHEMERIS_TYPE": 0, "CLASSIFICATION_TYPE": "U", "NORAD_CAT_ID": 65733, "ELEMENT_SET_NO": 999, "REV_AT_EPOCH": 1456, "BSTAR": 0.0013106356, "MEAN_MOTION_DOT": 0.00239293, "MEAN_MOTION_DDOT": 0}, "tle": {"line1": "1 65733U 98067XM  25355.49998912  .00239293  00000+0  13106-2 0  9995", "line2": "2 65733  51.6282  90.0237 0008816 335.2591  24.7986 15.78528465 14565"}}, "geometry": {"type": "Point", "coordinates": [-65.67393165748824, -32.31041296464109]}}, {"type": "Feature", "properties": {"norad_id": 65941, "name": "YOTSUBA-KULOVER", "group": "stations", "lat": -25.954090278439992, "lon": -67.02042300596533, "alt_km": 389.8494655737559, "timestamp": "2025-12-22T14:45:56.131352+00:00", "meta": {"OBJECT_NAME": "YOTSUBA-KULOVER", "OBJECT_ID": "1998-067XN", "EPOCH": "2025-12-22T06:10:09.411168", "MEAN_MOTION": 15.60674644, "ECCENTRICITY": 0.00021538, "INCLINATION": 51.6293, "RA_OF_ASC_NODE": 92.0993, "ARG_OF_PERICENTER": 341.2736, "MEAN_ANOMALY": 18.8178, "EPHEMERIS_TYPE": 0, "CLASSIFICATION_TYPE": "U", "NORAD_CAT_ID": 65941, "ELEMENT_SET_NO": 999, "REV_AT_EPOCH": 1134, "BSTAR": 0.00088673356, "MEAN_MOTION_DOT": 0.00075191, "MEAN_MOTION_DDOT": 0}, "tle": {"line1": "1 65941U 98067XN  25356.25705337  .00075191  00000+0  88673-3 0  9995", "line2": "2 65941  51.6293  92.0993 0002153 341.2736  18.8178 15.60674644 11347"}}, "geometry": {"type": "Point", "coordinates": [-67.02042300596533, -25.954090278439992]}}, {"type": "Feature", "properties": {"norad_id": 65942, "name": "BOTAN", "group": "stations", "lat": -32.12232391708414, "lon": 59.49388688011064, "alt_km": 375.3456648919282, "timestamp": "2025-12-22T14:45:56.131362+00:00", "meta": {"OBJECT_NAME": "BOTAN", "OBJECT_ID": "1998-067XP", "EPOCH": "2025-12-21T23:37:13.039680", "MEAN_MOTION": 15.64723057, "ECCENTRICITY": 0.00030592, "INCLINATION": 51.6285, "RA_OF_ASC_NODE": 92.5255, "ARG_OF_PERICENTER": 316.6452, "MEAN_ANOMALY": 43.4302, "EPHEMERIS_TYPE": 0, "CLASSIFICATION_TYPE": "U", "NORAD_CAT_ID": 65942, "ELEMENT_SET_NO": 999, "REV_AT_EPOCH": 1131, "BSTAR": 0.0011948003, "MEAN_MOTION_DOT": 0.00119607, "MEAN_MOTION_DDOT": 0}, "tle": {"line1": "1 65942U 98067XP  25355.98417870  .00119607  00000+0  11948-2 0  9998", "line2": "2 65942  51.6285  92.5255 0003059 316.6452  43.4302 15.64723057 11319"}}, "geometry": {"type": "Point", "coordinates": [59.49388688011064, -32.12232391708414]}}, {"type": "Feature", "properties": {"norad_id": 65943, "name": "E-KAGAKU-1", "group": "stations", "lat": -25.474955957226697, "lon": -67.52381953616558, "alt_km": 388.7429979983799, "timestamp": "2025-12-22T14:45:56.131373+00:00", "meta": {"OBJECT_NAME": "E-KAGAKU-1", "OBJECT_ID": "1998-067XQ", "EPOCH": "2025-12-21T11:43:47.711424", "MEAN_MOTION": 15.60558335, "ECCENTRICITY": 0.00011984, "INCLINATION": 51.6316, "RA_OF_ASC_NODE": 95.9734, "ARG_OF_PERICENTER": 280.9822, "MEAN_ANOMALY": 79.1036, "EPHEMERIS_TYPE": 0, "CLASSIFICATION_TYPE": "U", "NORAD_CAT_ID": 65943, "ELEMENT_SET_NO": 999, "REV_AT_EPOCH": 1122, "BSTAR": 0.00073910068, "MEAN_MOTION_DOT": 0.00062201, "MEAN_MOTION_DDOT": 0}, "tle": {"line1": "1 65943U 98067XQ  25355.48874666  .00062201  00000+0  73910-3 0  9999", "line2": "2 65943  51.6316  95.9734 0001198 280.9822  79.1036 15.60558335 11221"}}, "geometry": {"type": "Point", "coordinates": [-67.52381953616558, -25.474955957226697]}}]}